454P/PANSTARRS,e,19.8103,54.5853,20.1846,4.211154,0.1140519,0.36147035,113.5217,04/17.0/2025,2000,g 14.0,4.0
# From MPEC 2022-Y14
455P/PANSTARRS,e,14.1352,146.1813,237.5343,3.153268,0.1760203,0.30449514,137.6496,04/17.0/2025,2000,g 17.0,4.0
# From MPC182892
456P/PANSTARRS,e,16.9659,243.1489,233.0271,3.170522,0.1745854,0.11615499,0.3402,04/17.0/2025,2000,g 13.5,4.0
# From MPEC 2025-A40
457P/Lemmon-PANSTARRS,e,5.2257,175.9634,104.3267,2.645229,0.2290916,0.11841144,54.9579,04/17.0/2025,2000,g 15.5,4.0
# From MPEC 2023-HD1
458P/Jahn,e,13.6225,1.5653,104.9214,3.859115,0.1300087,0.31725626,116.9132,04/17.0/2025,2000,g 17.3,4.0
# From MPEC 2024-N80
459P/Catalina,e,7.1738,256.9877,205.2220,3.240376,0.1689705,0.57785186,132.7028,04/17.0/2025,2000,g 15.5,4.0
# From MPEC 2023-G14
460P/PANSTARRS,e,18.8999,180.5166,351.9366,3.027170,0.1871323,0.66419649,262.1918,04/17.0/2025,2000,g 21.0,4.0
# From MPEC 2024-GJ3
461P/WISE,e,18.4003,194.3781,174.8328,3.144260,0.1767773,0.56962708,228.1230,04/17.0/2025,2000,g 18.5,4.0
# From MPEC 2024-BE0
462P/LONEOS-PANSTARRS,e,7.0420,322.6830,4.2506,4.864922,0.0918523,0.57834817,90.9069,04/17.0/2025,2000,g 17.0,4.0
# From MPEC 2024-GJ3
463P/NEOWISE,e,29.2959,283.2178,216.3405,2.974164,0.1921572,0.82585847,143.9621,04/17.0/2025,2000,g 18.0,4.0
# From MPEC 2024-Q20
464P/PANSTARRS,e,21.6730,309.5779,267.5392,4.684222,0.0972183,0.28054071,75.7964,04/17.0/2025,2000,g 10.5,4.0
# From MPEC 2024-NE4
465P/Hill,e,25.8622,217.9671,140.9974,6.010608,0.0668847,0.61322770,47.4178,04/17.0/2025,2000,g 12.5,4.0
# From MPEC 2024-JU4
466P/PANSTARRS,e,12.5724,118.5889,197.7444,4.050940,0.1208844,0.47438271,85.8460,04/17.0/2025,2000,g 14.0,4.0
# From MPEC 2025-A40
467P/LINEAR-Grauer,e,2.4792,43.2636,267.5501,5.826824,0.0700739,0.05459214,61.0648,04/17.0/2025,2000,g  9.0,4.0
# From MPEC 2024-O39
468P/SidingSpring,e,50.4511,356.1253,322.5806,7.118545,0.0518940,0.44506385,26.6138,04/17.0/2025,2000,g 11.5,4.0
# From MPEC 2025-A40
469P/PANSTARRS,e,20.1726,178.9674,43.4945,4.342224,0.1089270,0.30795194,334.3570,04/17.0/2025,2000,g 13.5,4.0
# From MPC182892
470P/PANSTARRS,e,8.8442,246.1722,151.7164,4.465009,0.1044650,0.38945459,50.8881,04/17.0/2025,2000,g 15.5,4.0
# From MPC182892
471P/LINEAR-Lemmon,e,4.7967,283.3107,94.8184,5.696559,0.0724912,0.62777739,35.0929,04/17.0/2025,2000,g 12.0,4.0
# From MPEC 2025-H10
472P/NEAT-LINEAR,e,10.8239,205.8708,218.8587,7.789019,0.0453398,0.56503267,12.5417,04/17.0/2025,2000,g 10.5,4.0
# From MPEC 2024-MB8
473P/NEAT,e,56.8997,22.1892,42.9342,7.972206,0.0437861,0.82360514,18.2044,04/17.0/2025,2000,g 13.5,4.0
# From MPEC 2024-B74
474P/Hogan,e,1.0970,26.7485,11.2645,3.130453,0.1779481,0.18809986,114.1163,04/17.0/2025,2000,g 15.5,4.0
# From MPEC 2024-O39
475P/Spacewatch-LINEAR,e,14.5237,147.3626,40.4035,7.316608,0.0498012,0.44271838,15.9053,04/17.0/2025,2000,g 11.0,4.0
# From MPEC 2025-GB9
476P/PANSTARRS,e,19.0052,57.0516,46.7353,4.775851,0.0944339,0.34600221,17.2336,04/17.0/2025,2000,g 12.5,4.0
# From MPEC 2024-GJ3
477P/PANSTARRS,e,8.9139,59.1491,305.8915,3.002408,0.1894522,0.41749616,90.4537,04/17.0/2025,2000,g 14.5,4.0
# From MPEC 2024-L77
478P/ATLAS,e,12.5245,127.2645,13.2327,3.647660,0.1414759,0.34372260,49.4976,04/17.0/2025,2000,g 13.5,4.0
# From MPEC 2024-PC5
479P/Elenin,e,15.3996,295.8322,263.5098,5.623115,0.0739160,0.77888841,25.6302,04/17.0/2025,2000,g 15.0,4.0
# From MPC182893
480P/PANSTARRS,e,13.7169,229.9806,214.3958,4.610402,0.0995625,0.24635173,72.1162,04/17.0/2025,2000,g 12.0,4.0
# From MPEC 2025-A40
481P/Lemmon-PANSTARRS,e,6.0826,93.5503,356.7859,4.681206,0.0973122,0.34348538,63.0343,04/17.0/2025,2000,g 13.5,4.0
# From MPEC 2024-JU4
482P/PANSTARRS,e,24.4864,126.0799,339.7162,3.756656,0.1353636,0.49237053,92.7045,04/17.0/2025,2000,g 13.5,4.0
# From MPEC 2024-R10
483P-A/PANSTARRS,e,14.2024,199.4003,48.9598,3.194186,0.1726489,0.22280086,198.2966,04/17.0/2025,2000,g 13.5,4.0
# From MPEC 2024-R10
483P-B/PANSTARRS,e,14.2032,199.3996,48.9499,3.194114,0.1726548,0.22274142,198.3320,04/17.0/2025,2000,g 17.0,4.0
# From MPEC 2024-DD5
484P/Spacewatch,e,14.4745,265.3859,240.7887,3.757142,0.1353373,0.43287121,216.7227,04/17.0/2025,2000,g 16.0,4.0
# From MPEC 2024-JU4
485P/Sheppard-Tholen,e,10.0161,261.6447,196.0864,6.850358,0.0549711,0.41718679,33.0293,04/17.0/2025,2000,g 13.0,4.0
# From MPEC 2024-R10
486P/Leonard,e,2.2095,219.0245,93.9455,3.628038,0.1426252,0.36358528,1.8767,04/17.0/2025,2000,g 14.5,4.0
# From MPEC 2025-GB9
487P/SidingSpring,e,39.3663,49.2061,0.8494,5.163593,0.0839994,0.64853408,14.9844,04/17.0/2025,2000,g 13.5,4.0
# From MPEC 2024-UA9
488P/NEAT-PANSTARRS,e,11.3667,324.0105,1.5937,3.737423,0.1364098,0.55087848,45.3776,04/17.0/2025,2000,g 16.5,4.0
# From MPEC 2024-Q14
489P/Denning,e,4.0266,20.6111,109.4371,4.423168,0.1059507,0.64707680,335.4882,04/17.0/2025,2000,g 15.5,4.0
# From MPEC 2024-YC7
490P/ATLAS,e,12.2663,307.6050,332.5292,3.029670,0.1869008,0.64721039,37.5327,04/17.0/2025,2000,g 21.0,4.0
# From MPEC 2024-UQ8
491P/Spacewatch-PANSTARRS,e,9.3660,311.6853,298.8911,5.013482,0.0878001,0.25869212,19.5728,04/17.0/2025,2000,g  9.5,4.0
# From MPC182893
492P/LINEAR,e,11.4007,11.3068,40.9877,5.761125,0.0712760,0.69068204,19.2826,04/17.0/2025,2000,g 15.0,4.0
# From MPC182893
493P/LONEOS,e,24.1135,1.1106,83.1968,7.163962,0.0514013,0.46631626,346.0121,04/17.0/2025,2000,g 12.0,2.0
# From MPEC 2024-RQ6
494P/PANSTARRS,e,7.7899,245.0433,48.8745,3.794505,0.1333434,0.35686905,42.8039,04/17.0/2025,2000,g 16.0,4.0
# From MPEC 2025-A40
495P/Christensen,e,26.3543,291.6202,141.3424,4.754577,0.0950684,0.27229739,342.0853,04/17.0/2025,2000,g 11.5,4.0
# From MPEC 2025-H10
496P/Hill,e,14.8145,63.5871,42.2463,6.100837,0.0654064,0.73429149,2.4671,04/17.0/2025,2000,g 14.0,4.0
# From MPEC 2025-H10
497P/Spacewatch-PANSTARRS,e,10.4372,40.3796,32.4111,5.616992,0.0740369,0.63055280,4.4903,04/17.0/2025,2000,g 17.5,4.0
# From MPEC 2025-GB9
498P/LINEAR,e,14.4828,279.2308,179.0826,4.593527,0.1001116,0.57236976,11.9212,04/17.0/2025,2000,g 14.7,4.0
# From MPEC 2025-H10
499P/Catalina,e,24.5823,139.3099,2.5541,3.017525,0.1880303,0.69145655,8.1997,04/17.0/2025,2000,g 18.5,4.0
# From MPC107687
1I/`Oumuamua,h,09/09.4886/2017,122.6778,24.5997,241.6845,1.199252,0.255240,2000,23.0,2.0
# From MPEC 2023-L37
2I/Borisov,h,12/08.5548/2019,44.0527,308.1480,209.1251,3.356633,2.006548,2000,11.0,4.0
